OBJECT_NAME,OBJECT_ID,EPOCH,MEAN_MOTION,ECCENTRICITY,INCLINATION,RA_OF_ASC_NODE,ARG_OF_PERICENTER,MEAN_ANOMALY,EPHEMERIS_TYPE,CLASSIFICATION_TYPE,NORAD_CAT_ID,ELEMENT_SET_NO,REV_AT_EPOCH,BSTAR,MEAN_MOTION_DOT,MEAN_MOTION_DDOT
STARLINK-37587,2026-154U,2026-07-15T22:00:01.999584,15.83398241,.00012418,53.1590,289.1840,76.3491,147.8112,0,U,69837,999,275,-.83127846E-2,-.1614449E-1,0
STARLINK-37590,2026-154V,2026-07-15T22:00:01.999584,15.83543275,.00012139,53.1588,289.1759,81.5922,146.5319,0,U,69838,999,262,-.85281489E-2,-.166071E-1,0
STARLINK-37589,2026-154W,2026-07-15T22:00:01.999584,15.83724258,.00010027,53.1586,289.1678,83.9599,148.1659,0,U,69839,999,275,-.94257263E-2,-.1864288E-1,0
STARLINK-37487,2026-154X,2026-07-15T22:00:01.999584,15.92063373,.0000749,53.1570,288.8105,72.6515,330.6376,0,U,69840,999,275,-.51942001E-2,-.1760555E-1,.85923659E-3
STARLINK-37433,2026-154Y,2026-07-15T22:00:01.999584,15.92630634,.00008782,53.1570,288.7948,63.2334,347.5948,0,U,69841,999,288,-.68457092E-2,-.238088E-1,.15227745E-2
STARLINK-37588,2026-154Z,2026-07-15T22:00:01.999584,15.91939549,.00007026,53.1569,288.7839,73.8314,342.1493,0,U,69842,999,278,-.53684721E-2,-.1807329E-1,.90076867E-3
STARLINK-37579,2026-154AA,2026-07-15T22:00:01.999584,15.91777560,.00008453,53.1570,288.7661,63.0840,1.3189,0,U,69843,999,278,-.55964057E-2,-.1867517E-1,.95555016E-3
STARLINK-37584,2026-154AB,2026-07-15T22:00:01.999584,15.91758232,.00008574,53.1571,288.7546,67.4500,2.3694,0,U,69844,999,278,-.5658839E-2,-.1886211E-1,.97317746E-3
STARLINK-37606,2026-154AC,2026-07-15T22:00:01.999584,15.91694610,.00009425,53.1566,288.7412,68.1340,8.0335,0,U,69845,999,278,-.57726411E-2,-.1917416E-1,.10026466E-2
STARLINK-37603,2026-154AD,2026-07-15T22:00:01.999584,15.91580109,.00010462,53.1569,288.7255,55.7078,27.8841,0,U,69846,999,278,-.59761412E-2,-.1972575E-1,.10557747E-2
STARLINK-37595,2026-154AE,2026-07-15T22:00:01.999584,15.91562261,.00009098,53.1566,288.7139,67.1794,21.7970,0,U,69847,999,278,-.60459221E-2,-.1993464E-1,.10765196E-2
QIANFAN-219,2026-155A,2026-07-15T18:48:48.007872,14.20138558,.00284499,89.0062,60.8794,230.0128,129.8564,0,U,69848,999,146,-.75111557E+0,-.1501209E-1,0
QIANFAN-220,2026-155B,2026-07-15T13:55:30.816192,14.17198263,.00359035,89.0059,60.9044,226.8697,132.9488,0,U,69849,999,143,-.10050673E+1,-.1896186E-1,0
QIANFAN-221,2026-155C,2026-07-15T20:30:41.072256,14.26646785,.00303407,89.0065,60.8713,221.4466,138.4427,0,U,69850,999,147,.7985176E-4,.208E-5,0
QIANFAN-222,2026-155D,2026-07-15T22:22:26.732640,14.22184528,.00293563,89.0066,60.8645,221.2060,138.6916,0,U,69851,999,148,.27880577E-4,.76E-6,0
QIANFAN-223,2026-155E,2026-07-15T18:55:15.130848,14.18697234,.00328723,89.0056,60.8800,229.1788,130.6550,0,U,69852,999,146,-.10354388E+1,-.199905E-1,0
QIANFAN-224,2026-155F,2026-07-15T22:17:36.429504,14.23567878,.00299821,89.0059,60.8633,220.7124,139.1828,0,U,69853,999,148,.43170126E-4,.113E-5,0
QIANFAN-225,2026-155G,2026-07-15T13:46:58.201536,14.21176210,.00285715,89.0057,60.9028,224.6226,135.2665,0,U,69854,999,143,-.10131532E+1,-.204308E-1,0
QIANFAN-226,2026-155H,2026-07-15T15:26:23.400960,14.22513031,.00253289,89.0073,60.8921,219.4211,140.5138,0,U,69855,999,144,-.94247573E+0,-.1954139E-1,0
QIANFAN-227,2026-155J,2026-07-15T15:24:38.189952,14.22033823,.00291748,89.0074,60.8892,222.0545,137.8407,0,U,69856,999,144,-.85401952E+0,-.1749557E-1,0
QIANFAN-228,2026-155K,2026-07-15T22:11:06.932256,14.26683842,.00304505,89.0066,60.8633,221.0629,138.8272,0,U,69857,999,148,.42682933E-4,.118E-5,0
QIANFAN-229,2026-155L,2026-07-15T13:43:11.601120,14.23030071,.00288049,89.0061,60.9031,217.3632,142.5558,0,U,69858,999,143,-.85377376E+0,-.1800091E-1,0
QIANFAN-230,2026-155M,2026-07-15T15:33:59.769216,14.20346445,.00285056,89.0059,60.8958,226.8287,133.0521,0,U,69859,999,144,-.82915774E+0,-.1652391E-1,0
QIANFAN-231,2026-155N,2026-07-15T20:33:52.408512,14.26095869,.00305409,89.0066,60.8718,220.3966,139.4960,0,U,69860,999,147,.9208114E-4,.235E-5,0
QIANFAN-232,2026-155P,2026-07-15T20:29:57.175008,14.26735667,.0030365,89.0065,60.8712,221.6735,138.2145,0,U,69861,999,147,.84320549E-4,.219E-5,0
QIANFAN-233,2026-155Q,2026-07-15T20:29:48.523776,14.26751577,.00303217,89.0066,60.8712,221.4662,138.4231,0,U,69862,999,147,.83030833E-4,.216E-5,0
QIANFAN-234,2026-155R,2026-07-15T17:05:25.095264,14.22304616,.0028064,89.0061,60.8873,220.1417,139.7702,0,U,69863,999,145,-.87478271E+0,-.1817563E-1,0
QIANFAN-235,2026-155S,2026-07-15T18:46:47.689824,14.21432781,.0029657,89.0061,60.8792,225.2918,134.5858,0,U,69864,999,146,-.8726166E+0,-.1766385E-1,0
QIANFAN-236,2026-155T,2026-07-15T20:29:37.685760,14.26769233,.00302102,89.0066,60.8713,221.5842,138.3054,0,U,69865,999,147,.90263601E-4,.234E-5,0
QIANFAN-237,2026-155U,2026-07-15T20:29:32.435232,14.26777432,.00301755,89.0066,60.8712,221.6245,138.2652,0,U,69866,999,146,.74420209E-4,.195E-5,0
