STARLINK-37587          
1 69837U 26154U   26196.91668981 -.01614449  00000+0 -83128-2 0  9997
2 69837  53.1590 289.1840 0001241  76.3491 147.8112 15.83398241  2750
STARLINK-37590          
1 69838U 26154V   26196.91668981 -.01660710  00000+0 -85281-2 0  9992
2 69838  53.1588 289.1759 0001213  81.5922 146.5319 15.83543275  2623
STARLINK-37589          
1 69839U 26154W   26196.91668981 -.01864288  00000+0 -94257-2 0  9992
2 69839  53.1586 289.1678 0001002  83.9599 148.1659 15.83724258  2755
STARLINK-37487          
1 69840U 26154X   26196.91668981 -.01760555  85924-3 -51942-2 0  9992
2 69840  53.1570 288.8105 0000749  72.6515 330.6376 15.92063373  2759
STARLINK-37433          
1 69841U 26154Y   26196.91668981 -.02380880  15228-2 -68457-2 0  9991
2 69841  53.1570 288.7948 0000878  63.2334 347.5948 15.92630634  2888
STARLINK-37588          
1 69842U 26154Z   26196.91668981 -.01807329  90077-3 -53685-2 0  9996
2 69842  53.1569 288.7839 0000702  73.8314 342.1493 15.91939549  2788
STARLINK-37579          
1 69843U 26154AA  26196.91668981 -.01867517  95555-3 -55964-2 0  9990
2 69843  53.1570 288.7661 0000845  63.0840   1.3189 15.91777560  2786
STARLINK-37584          
1 69844U 26154AB  26196.91668981 -.01886211  97318-3 -56588-2 0  9995
2 69844  53.1571 288.7546 0000857  67.4500   2.3694 15.91758232  2781
STARLINK-37606          
1 69845U 26154AC  26196.91668981 -.01917416  10026-2 -57726-2 0  9993
2 69845  53.1566 288.7412 0000942  68.1340   8.0335 15.91694610  2787
STARLINK-37603          
1 69846U 26154AD  26196.91668981 -.01972575  10558-2 -59761-2 0  9992
2 69846  53.1569 288.7255 0001046  55.7078  27.8841 15.91580109  2780
STARLINK-37595          
1 69847U 26154AE  26196.91668981 -.01993464  10765-2 -60459-2 0  9999
2 69847  53.1566 288.7139 0000909  67.1794  21.7970 15.91562261  2783
QIANFAN-219             
1 69848U 26155A   26196.78388898 -.01501209  00000+0 -75112+0 0  9991
2 69848  89.0062  60.8794 0028449 230.0128 129.8564 14.20138558  1462
QIANFAN-220             
1 69849U 26155B   26196.58021778 -.01896186  00000+0 -10051+1 0  9994
2 69849  89.0059  60.9044 0035903 226.8697 132.9488 14.17198263  1437
QIANFAN-221             
1 69850U 26155C   26196.85464204  .00000208  00000+0  79852-4 0  9998
2 69850  89.0065  60.8713 0030340 221.4466 138.4427 14.26646785  1478
QIANFAN-222             
1 69851U 26155D   26196.93225385  .00000076  00000+0  27881-4 0  9991
2 69851  89.0066  60.8645 0029356 221.2060 138.6916 14.22184528  1481
QIANFAN-223             
1 69852U 26155E   26196.78836957 -.01999050  00000+0 -10354+1 0  9993
2 69852  89.0056  60.8800 0032872 229.1788 130.6550 14.18697234  1467
QIANFAN-224             
1 69853U 26155F   26196.92889386  .00000113  00000+0  43170-4 0  9990
2 69853  89.0059  60.8633 0029982 220.7124 139.1828 14.23567878  1484
QIANFAN-225             
1 69854U 26155G   26196.57428474 -.02043080  00000+0 -10132+1 0  9991
2 69854  89.0057  60.9028 0028571 224.6226 135.2665 14.21176210  1436
QIANFAN-226             
1 69855U 26155H   26196.64332640 -.01954139  00000+0 -94248+0 0  9993
2 69855  89.0073  60.8921 0025328 219.4211 140.5138 14.22513031  1441
QIANFAN-227             
1 69856U 26155J   26196.64210868 -.01749557  00000+0 -85402+0 0  9999
2 69856  89.0074  60.8892 0029174 222.0545 137.8407 14.22033823  1447
QIANFAN-228             
1 69857U 26155K   26196.92438579  .00000118  00000+0  42683-4 0  9991
2 69857  89.0066  60.8633 0030450 221.0629 138.8272 14.26683842  1484
QIANFAN-229             
1 69858U 26155L   26196.57166205 -.01800091  00000+0 -85377+0 0  9990
2 69858  89.0061  60.9031 0028804 217.3632 142.5558 14.23030071  1436
QIANFAN-230             
1 69859U 26155M   26196.64860844 -.01652391  00000+0 -82916+0 0  9993
2 69859  89.0059  60.8958 0028505 226.8287 133.0521 14.20346445  1448
QIANFAN-231             
1 69860U 26155N   26196.85685658  .00000235  00000+0  92081-4 0  9996
2 69860  89.0066  60.8718 0030540 220.3966 139.4960 14.26095869  1474
QIANFAN-232             
1 69861U 26155P   26196.85413397  .00000219  00000+0  84321-4 0  9996
2 69861  89.0065  60.8712 0030365 221.6735 138.2145 14.26735667  1470
QIANFAN-233             
1 69862U 26155Q   26196.85403384  .00000216  00000+0  83031-4 0  9996
2 69862  89.0066  60.8712 0030321 221.4662 138.4231 14.26751577  1477
QIANFAN-234             
1 69863U 26155R   26196.71209601 -.01817563  00000+0 -87478+0 0  9996
2 69863  89.0061  60.8873 0028064 220.1417 139.7702 14.22304616  1455
QIANFAN-235             
1 69864U 26155S   26196.78249641 -.01766385  00000+0 -87262+0 0  9998
2 69864  89.0061  60.8792 0029657 225.2918 134.5858 14.21432781  1467
QIANFAN-236             
1 69865U 26155T   26196.85390840  .00000234  00000+0  90264-4 0  9997
2 69865  89.0066  60.8713 0030210 221.5842 138.3054 14.26769233  1479
QIANFAN-237             
1 69866U 26155U   26196.85384763  .00000195  00000+0  74420-4 0  9997
2 69866  89.0066  60.8712 0030175 221.6245 138.2652 14.26777432  1469
